GLOBALSTAR M084         
1 38040U 11080A   24323.12842424 -.00000080  00000+0  13029-3 0  9992
2 38040  52.0022 331.0142 0000264  15.4970  60.3229 12.62270666596291
GLOBALSTAR M080         
1 38041U 11080B   24323.51864910 -.00000083  00000+0  11463-3 0  9993
2 38041  52.0076 331.3600 0000188 304.1385 225.1979 12.62268628596328
GLOBALSTAR M082         
1 38042U 11080C   24322.50018924 -.00000092  00000+0  66212-4 0  9991
2 38042  52.0079 289.8833 0000985  71.5302  87.8004 12.62269621596760
GLOBALSTAR M092         
1 38043U 11080D   24323.47098316 -.00000084  00000+0  11057-3 0  9999
2 38043  52.0110  17.2927 0000383  94.9850 278.0693 12.62269488595558
GLOBALSTAR M090         
1 38044U 11080E   24322.89737690 -.00000082  00000+0  11994-3 0  9998
2 38044  51.9887 282.7537 0000744  71.8255 333.7579 12.62270786596936
GLOBALSTAR M086         
1 38045U 11080F   24322.63449248 -.00000084  00000+0  11275-3 0  9994
2 38045  51.9900 284.0885 0000487 183.0750 347.8684 12.62270245596847
GLOBALSTAR M097         
1 39072U 13005A   24322.94044219 -.00000068  00000+0  20136-3 0  9995
2 39072  52.0032 197.4918 0000981  92.3038 267.7941 12.62267368544133
GLOBALSTAR M093         
1 39073U 13005B   24322.91366087 -.00000061  00000+0  23664-3 0  9995
2 39073  51.9794 191.2118 0001118  93.5712 266.5282 12.62276431544086
